FENGYUN 1C DEB          
1 32312U 99025CXD 17345.58672517  .00000434  00000-0  35836-3 0  9996
2 32312  98.7503 122.9024 0138988  76.6111 346.2464 13.89494959541295
